#dP2024 11 26  0  0  0.00000000      97 __u+U IGS20 FIT  IAC
## 2342 172800.00000000   900.00000000 60640 0.0000000000000
+  118   C06C07C08C09C10C11C12C13C14C16C19C20C21C22C23C24C25
+        C26C27C28C29C30C32C33C34C35C36C37C38C39C40C41C42C43
+        C44C45E02E03E04E05E06E07E08E09E10E11E12E13E14E15E18
+        E19E21E24E25E26E27E29E30E31E33E34E36G02G03G04G05G06
+        G07G08G09G10G11G12G13G14G15G16G17G18G19G20G21G22G23
+        G24G25G26G27G28G29G30G31G32J02J03J04R01R02R03R04R05
+        R07R08R09R11R12R14R15R16R17R18R19R20R21R22R24R26  0
++         7  7  8  7  7  7  6  9  7  7  5  6  6  5  5  5  5
++         5  5  5  6  6  5  5  6  5  6  5  6  6  6  5  6  6
++         5  6  4  4  4  4  4  4  3  4  4  4  4  4  4  4  4
++         4  4  4  4  4  4  4  4  4  4  4  4  3  3  3  7  3
++         3  3  3  3  3  3  3  3  3  4  3  3  3  4  3  3  3
++         3  3  4  5  3  3  3  3  3 10 11 11  8  7  6  6  6
++         6  7  6  7  6  6  6  6  6  6  7  8  7  7  7  8  0
%c M  cc GPS ccc cccc cccc cccc cccc ccccc ccccc ccccc ccccc
%c cc cc ccc ccc cccc cccc cccc cccc ccccc ccccc ccccc ccccc
%f  1.2500000  1.025000000  0.00000000000  0.000000000000000
%f  0.0000000  0.000000000  0.00000000000  0.000000000000000
%i    0    0    0    0      0      0      0      0         0
%i    0    0    0    0      0      0      0      0         0
/* INFORMATION & ANALYSIS CENTER (IAC)            FINAL DATA
/* S/V CLOCKS ARE ALIGNED TO GNSS TIME                      
/* G:C1WC2W R:C1PC2P E:C1XC5X C:C2IC6I J:C1CC2S             
/* PCV:IGS20_2317 OL/AL:FES2004  NONE     YN ORB:CoN CLK:CoN
*  2024 11 26  4 45  0.00000000
PC06  -3138.678263  26052.475720  33142.736584    477.836398
PC07 -16452.818583  33977.720437 -18889.253336   -173.309927
PC08  -5591.486681  39924.979343 -11918.340772   -837.818020
PC09   4421.805574  29347.500759  30688.367932   -687.628583
PC10 -10003.937476  33793.542960 -23164.578573   -302.655519
PC11  -7443.597662 -15711.579444  21907.600236    260.391994
PC12  14172.601285 -12371.576917  20658.684184   -243.778814
PC13  -1218.622850  41551.746165  -5804.462439     85.330514
PC14   1153.520971 -21892.577193 -17232.006505   -471.484565
PC16  -6675.462299  23986.803690  34382.202329     73.334595
PC19   6832.068104  15840.957380  21955.955460   -971.420445
PC20  -7810.799235  24292.542488  11328.799207   -901.932735
PC21  19277.760964 -18762.321573   7392.503676   -912.420667
PC22  18560.156511  -2255.913876  20700.184283    189.623715
PC23 -18966.247881  -9768.526852  17990.760125   -897.364532
PC24   -284.721475 -24230.171855 -13889.025762    753.251217
PC25 -14209.858482 -23859.060033   2866.813044    571.330084
PC26  12774.812490 -10641.374536 -22440.061294   -382.556531
PC27 -22224.803675   8354.578818 -14673.462494    401.401669
PC28 -27812.572130  -2260.957332   -403.151341    312.778487
PC29  16811.724608  13456.895032 -17748.573955    367.225284
PC30  -4940.397938  15725.776866 -22519.580845     37.035879
PC32 -19162.296820  18857.267562  -7491.063729   -816.686354
PC33  -6886.957279 -15869.306435 -21897.789718   -949.179140
PC34   2890.191584 -16000.673549  22671.997888    572.401523
PC35  27872.261279   1691.620233   -308.635009    198.151672
PC36  13885.245760  23973.597980  -3261.739896    227.643048
PC37 -13197.598483   9996.713321  22462.494405   -894.093858
PC38  -8973.983290  37123.019923 -17633.117645    193.471404
PC39 -10546.989345  21692.178873  34624.122468    -10.423505
PC40 -24228.129874  28897.191593 -19152.015483   -104.736268
PC41 -18201.748154   1343.329830 -21065.752331   -887.766663
PC42   9215.035057 -24502.571140  -9592.578886   -523.827565
PC43 -15847.522492 -13903.242756  18267.990658     93.379865
PC44  22024.305234  -9224.652854  14453.816906    663.387151
PC45  18839.899278  10403.874663 -17760.032958   -174.893285
PE02  -8630.876158 -21835.482666  18030.473311    177.642641
PE03 -14044.918925 -12028.399978 -23126.097805   -155.908998
PE04  27528.632025  -2099.268146  10674.661087    -91.650565
PE05   7394.264542 -18753.045525 -21679.297225   4805.011047
PE06  28142.835750  -9075.376905   1430.691662    -51.666023
PE07 -24815.944054  14410.335154   7270.561559   -154.873231
PE08 -27287.182229   1576.650320 -11380.302060   -373.994138
PE09  24861.824317 -14326.658581  -7251.965795   -677.357328
PE10  21386.367076    885.251756  20444.701726   -672.379938
PE11  14325.821975  -8568.301463  24444.000807    585.098080
PE12  24509.858093   8983.667854  13972.291957  -1312.612851
PE13 -14735.283957   8025.267565 -24372.860535    -27.224537
PE14  -3425.006117 -16217.283590  19157.412353    411.896643
PE15 -24590.688141  -9621.826623 -13358.839647   -141.346479
PE18  -7013.650130  21759.303477 -21046.037052    815.139637
PE19  12114.873662  12980.570681  23684.016553    991.698588
PE21  -4204.639271  29252.498251  -1612.732485   -630.519410
PE24  15146.495105 -19567.614543 -16281.257456  -1120.709828
PE25   4513.296655 -29236.569434   1170.069726     11.627730
PE26   3917.829848  20902.343820 -20573.282074   -200.817507
PE27 -15027.805247  19638.829890  16256.762542   -513.836051
PE29  -6958.604774  18830.785309  21737.237909    -48.695717
PE30 -16902.821258  -1368.075147  24247.940016   -964.737428
PE31  16845.074535   1408.101995 -24295.754954    -44.324087
PE33  19587.006397  21437.842314  -5703.173316     16.234927
PE34 -19877.193579 -21289.926145   5315.331860   -148.125634
PE36  -3486.921722 -20620.548118  20956.506388   -316.371361
PG02  22962.365516  13734.576174     40.822784   -306.096962
PG03  12503.426569  10901.411762  20605.199322    609.642739
PG04  21079.439006   3295.074939  15929.547230    485.777337
PG05  -6078.556440 -23538.973136 -10797.668014   -194.145482
PG06   6333.048125 -13407.293065  22100.566995   -143.629386
PG07  22215.726456   3804.584728 -13863.517992    -18.150835
PG08  11888.790759  11029.388523 -21221.828948    423.350830
PG09  24627.131947  -5277.933682   8440.989063    460.434647
PG10 -10263.572879  20954.547314 -12135.029098   -210.203883
PG11  -6983.712997 -19887.394332  16235.626692   -751.422498
PG12 -10435.309671 -15600.563288  18528.672573   -554.503583
PG13  -2314.946690 -14971.121047 -22038.093992    687.560063
PG14  12958.360767 -17670.639545 -14799.416906    547.638753
PG15 -13421.146186  -9859.528957 -21239.288949    232.243420
PG16    221.305936  25439.075263  -7108.752431   -118.816323
PG17  21592.422114 -13856.959957   7663.804342    544.094968
PG18 -20871.346211  -1703.656005 -16443.022777   -660.583321
PG19  13927.262624 -15963.185555  15603.494018    567.067132
PG20   -905.181168 -26575.585297   1668.310571    368.414668
PG21  20303.474449  16822.270916  -6012.739843     96.536039
PG22   9833.327433 -23589.590407  -7398.398609    -82.163271
PG23 -14470.047595   7902.200397 -20729.061908    370.998728
PG24 -21757.158597 -15364.968319  -3240.699598   -477.950049
PG25 -15273.910002   -750.580579  21360.521340    498.705576
PG26  -4394.896754  25388.940504   5363.469671     13.203879
PG27    -93.316510  16361.357683 -21140.474574    -34.585198
PG28  -8227.818832  12786.407353  21763.331251   -490.330455
PG29 -24973.327269   2595.038692   8812.053124   -560.885423
PG30  15403.800315  -7341.658939 -20264.634693   -274.204214
PG31   2093.898896  18274.839301  18778.092911   -221.106092
PG32 -18561.735685  16171.437161   9919.484622   -568.388729
PJ02 -31813.852548  25754.986399  15463.094314      0.274165
PJ03 -25042.757067  17575.516042 -24330.619613     -7.555598
PJ04 -25976.297636  33227.266329   1741.157046     21.557719
PR01    887.577706  13772.195481  21450.706367    105.654837
PR02  13932.970407    336.246001  21423.463179    -39.395502
PR03  19693.680276 -13510.238710   9099.316948    112.083629
PR04  14783.598839 -19286.878677  -7767.090004    265.681973
PR05   1974.523501 -15014.601286 -20528.175610    141.278533
PR07 -19639.320940  13742.335022  -8601.407197     95.714848
PR08 -14330.447915  19467.927870   8131.365322     -6.220542
PR09 -13021.692845 -13242.914450  17459.348070    222.679162
PR11  -2964.183997  19097.367543  16665.354367      6.114069
PR12   7319.209292  24377.253602  -1559.395745     47.666400
PR14  10292.008351  -4500.241492 -22893.845371     27.288286
PR15   2192.225091 -20274.878632 -15305.389468     73.732691
PR16  -7322.029675 -24374.649242   1426.552967     31.086131
PR17  21411.344063   -603.856049  13831.745095    143.173930
PR18   8034.056065  -8395.264143  22736.016240    173.714196
PR19  -7343.498567 -12363.043612  21078.601163   -299.780235
PR20 -23177.735461  -9703.569942   4302.172390   -122.387524
PR21 -21992.861406   -248.605820 -12938.302066   -154.449079
PR22  -7019.514370   9104.566261 -22737.546157    -21.857582
PR24  23775.696581   8424.998922  -3698.692887    -81.627548
PR26 -15277.657975  19436.795162   6331.680436   -133.280178
EOF
